{"fetched_at":"2026-07-14T06:34:47.836Z","source":"https://celestrak.org/NORAD/elements/gp.php?NAME=HULIANWANG&FORMAT=JSON","constellation":"guowang","records":[{"OBJECT_NAME":"HULIANWANG DIGUI-76","OBJECT_ID":"2025-187D","EPOCH":"2026-07-13T20:25:52.542048","CLASSIFICATION_TYPE":"U","MEAN_MOTION":13.29323713,"ECCENTRICITY":0.0000094,"INCLINATION":50.0008,"RA_OF_ASC_NODE":110.3648,"ARG_OF_PERICENTER":337.4272,"MEAN_ANOMALY":22.6596,"EPHEMERIS_TYPE":0,"NORAD_CAT_ID":65308,"ELEMENT_SET_NO":999,"REV_AT_EPOCH":4324,"BSTAR":0.000015795,"MEAN_MOTION_DOT":-0.00000117,"MEAN_MOTION_DDOT":0},{"OBJECT_NAME":"HULIANWANG DIGUI-77","OBJECT_ID":"2025-187E","EPOCH":"2026-07-13T20:13:41.815776","CLASSIFICATION_TYPE":"U","MEAN_MOTION":13.29323595,"ECCENTRICITY":0.0000135,"INCLINATION":50.0043,"RA_OF_ASC_NODE":110.4083,"ARG_OF_PERICENTER":208.3171,"MEAN_ANOMALY":151.7694,"EPHEMERIS_TYPE":0,"NORAD_CAT_ID":65309,"ELEMENT_SET_NO":999,"REV_AT_EPOCH":4324,"BSTAR":0.000015893,"MEAN_MOTION_DOT":-0.00000117,"MEAN_MOTION_DDOT":0},{"OBJECT_NAME":"HULIANWANG DIGUI-78","OBJECT_ID":"2025-187F","EPOCH":"2026-07-13T21:01:58.315296","CLASSIFICATION_TYPE":"U","MEAN_MOTION":13.29322748,"ECCENTRICITY":0.0000147,"INCLINATION":50.0109,"RA_OF_ASC_NODE":110.0911,"ARG_OF_PERICENTER":307.4188,"MEAN_ANOMALY":52.6671,"EPHEMERIS_TYPE":0,"NORAD_CAT_ID":65310,"ELEMENT_SET_NO":999,"REV_AT_EPOCH":4325,"BSTAR":0.000034435,"MEAN_MOTION_DOT":-0.00000108,"MEAN_MOTION_DDOT":0},{"OBJECT_NAME":"HULIANWANG DIGUI-79","OBJECT_ID":"2025-187G","EPOCH":"2026-07-13T20:37:47.705952","CLASSIFICATION_TYPE":"U","MEAN_MOTION":13.29319508,"ECCENTRICITY":0.0000195,"INCLINATION":50.0038,"RA_OF_ASC_NODE":110.4826,"ARG_OF_PERICENTER":304.4759,"MEAN_ANOMALY":55.6095,"EPHEMERIS_TYPE":0,"NORAD_CAT_ID":65311,"ELEMENT_SET_NO":999,"REV_AT_EPOCH":4324,"BSTAR":0.000011489,"MEAN_MOTION_DOT":-0.00000119,"MEAN_MOTION_DDOT":0},{"OBJECT_NAME":"HULIANWANG DIGUI-80","OBJECT_ID":"2025-187H","EPOCH":"2026-07-13T20:01:41.548224","CLASSIFICATION_TYPE":"U","MEAN_MOTION":13.29322715,"ECCENTRICITY":0.0000131,"INCLINATION":50.0029,"RA_OF_ASC_NODE":110.3291,"ARG_OF_PERICENTER":213.1266,"MEAN_ANOMALY":146.9598,"EPHEMERIS_TYPE":0,"NORAD_CAT_ID":65312,"ELEMENT_SET_NO":999,"REV_AT_EPOCH":4324,"BSTAR":0.000024373,"MEAN_MOTION_DOT":-0.00000113,"MEAN_MOTION_DDOT":0},{"OBJECT_NAME":"HULIANWANG DIGUI-81","OBJECT_ID":"2025-187J","EPOCH":"2026-07-13T19:37:44.364576","CLASSIFICATION_TYPE":"U","MEAN_MOTION":13.29319545,"ECCENTRICITY":0.0000152,"INCLINATION":50.0068,"RA_OF_ASC_NODE":110.3451,"ARG_OF_PERICENTER":300.1016,"MEAN_ANOMALY":59.9841,"EPHEMERIS_TYPE":0,"NORAD_CAT_ID":65313,"ELEMENT_SET_NO":999,"REV_AT_EPOCH":4325,"BSTAR":0.000023256,"MEAN_MOTION_DOT":-0.00000113,"MEAN_MOTION_DDOT":0},{"OBJECT_NAME":"HULIANWANG DIGUI-82","OBJECT_ID":"2025-220A","EPOCH":"2026-07-13T14:32:55.970304","CLASSIFICATION_TYPE":"U","MEAN_MOTION":13.24409573,"ECCENTRICITY":0.0002096,"INCLINATION":86.4952,"RA_OF_ASC_NODE":34.9357,"ARG_OF_PERICENTER":100.8414,"MEAN_ANOMALY":259.2956,"EPHEMERIS_TYPE":0,"NORAD_CAT_ID":65817,"ELEMENT_SET_NO":999,"REV_AT_EPOCH":3841,"BSTAR":0.000046398,"MEAN_MOTION_DOT":3.5e-7,"MEAN_MOTION_DDOT":0},{"OBJECT_NAME":"HULIANWANG DIGUI-83","OBJECT_ID":"2025-220B","EPOCH":"2026-07-13T14:22:08.962176","CLASSIFICATION_TYPE":"U","MEAN_MOTION":13.24409877,"ECCENTRICITY":0.0002132,"INCLINATION":86.4974,"RA_OF_ASC_NODE":34.9969,"ARG_OF_PERICENTER":100.1518,"MEAN_ANOMALY":259.9856,"EPHEMERIS_TYPE":0,"NORAD_CAT_ID":65818,"ELEMENT_SET_NO":999,"REV_AT_EPOCH":3841,"BSTAR":0.000077146,"MEAN_MOTION_DOT":4.8e-7,"MEAN_MOTION_DDOT":0},{"OBJECT_NAME":"HULIANWANG DIGUI-84","OBJECT_ID":"2025-220C","EPOCH":"2026-07-13T12:22:25.621248","CLASSIFICATION_TYPE":"U","MEAN_MOTION":13.24409678,"ECCENTRICITY":0.00020737,"INCLINATION":86.4911,"RA_OF_ASC_NODE":34.8374,"ARG_OF_PERICENTER":100.4095,"MEAN_ANOMALY":259.7273,"EPHEMERIS_TYPE":0,"NORAD_CAT_ID":65819,"ELEMENT_SET_NO":999,"REV_AT_EPOCH":3840,"BSTAR":0.00009503124,"MEAN_MOTION_DOT":5.5e-7,"MEAN_MOTION_DDOT":0},{"OBJECT_NAME":"HULIANWANG DIGUI-85","OBJECT_ID":"2025-220D","EPOCH":"2026-07-13T19:26:42.018720","CLASSIFICATION_TYPE":"U","MEAN_MOTION":13.2440857,"ECCENTRICITY":0.000205,"INCLINATION":86.4972,"RA_OF_ASC_NODE":34.9084,"ARG_OF_PERICENTER":102.0246,"MEAN_ANOMALY":258.1117,"EPHEMERIS_TYPE":0,"NORAD_CAT_ID":65820,"ELEMENT_SET_NO":999,"REV_AT_EPOCH":3844,"BSTAR":0.00009751,"MEAN_MOTION_DOT":5.7e-7,"MEAN_MOTION_DDOT":0},{"OBJECT_NAME":"HULIANWANG DIGUI-86","OBJECT_ID":"2025-220E","EPOCH":"2026-07-13T15:38:27.192768","CLASSIFICATION_TYPE":"U","MEAN_MOTION":13.24411386,"ECCENTRICITY":0.0002066,"INCLINATION":86.4951,"RA_OF_ASC_NODE":34.894,"ARG_OF_PERICENTER":84.4601,"MEAN_ANOMALY":275.6768,"EPHEMERIS_TYPE":0,"NORAD_CAT_ID":65821,"ELEMENT_SET_NO":999,"REV_AT_EPOCH":3842,"BSTAR":0.000087988,"MEAN_MOTION_DOT":5.2e-7,"MEAN_MOTION_DDOT":0},{"OBJECT_NAME":"HULIANWANG DIGUI-87","OBJECT_ID":"2025-231A","EPOCH":"2026-07-13T20:29:29.736096","CLASSIFICATION_TYPE":"U","MEAN_MOTION":13.29328082,"ECCENTRICITY":0.0000531,"INCLINATION":50.0002,"RA_OF_ASC_NODE":80.1919,"ARG_OF_PERICENTER":344.2093,"MEAN_ANOMALY":15.8762,"EPHEMERIS_TYPE":0,"NORAD_CAT_ID":65995,"ELEMENT_SET_NO":999,"REV_AT_EPOCH":3643,"BSTAR":0.000033699,"MEAN_MOTION_DOT":-0.00000108,"MEAN_MOTION_DDOT":0},{"OBJECT_NAME":"HULIANWANG DIGUI-88","OBJECT_ID":"2025-231B","EPOCH":"2026-07-13T20:41:33.012960","CLASSIFICATION_TYPE":"U","MEAN_MOTION":13.29323756,"ECCENTRICITY":0.0000518,"INCLINATION":49.9987,"RA_OF_ASC_NODE":80.2086,"ARG_OF_PERICENTER":329.8967,"MEAN_ANOMALY":30.1875,"EPHEMERIS_TYPE":0,"NORAD_CAT_ID":65996,"ELEMENT_SET_NO":999,"REV_AT_EPOCH":3643,"BSTAR":0.000048561,"MEAN_MOTION_DOT":-0.00000101,"MEAN_MOTION_DDOT":0},{"OBJECT_NAME":"HULIANWANG DIGUI-89","OBJECT_ID":"2025-231C","EPOCH":"2026-07-13T20:17:26.372832","CLASSIFICATION_TYPE":"U","MEAN_MOTION":13.29327907,"ECCENTRICITY":0.0000585,"INCLINATION":49.9966,"RA_OF_ASC_NODE":80.0745,"ARG_OF_PERICENTER":335.9326,"MEAN_ANOMALY":24.1519,"EPHEMERIS_TYPE":0,"NORAD_CAT_ID":65997,"ELEMENT_SET_NO":999,"REV_AT_EPOCH":3643,"BSTAR":0.000028463,"MEAN_MOTION_DOT":-0.00000111,"MEAN_MOTION_DDOT":0},{"OBJECT_NAME":"HULIANWANG DIGUI-90","OBJECT_ID":"2025-231D","EPOCH":"2026-07-13T20:05:30.434784","CLASSIFICATION_TYPE":"U","MEAN_MOTION":13.29326307,"ECCENTRICITY":0.0000568,"INCLINATION":49.9998,"RA_OF_ASC_NODE":80.0934,"ARG_OF_PERICENTER":332.4084,"MEAN_ANOMALY":27.6758,"EPHEMERIS_TYPE":0,"NORAD_CAT_ID":65998,"ELEMENT_SET_NO":999,"REV_AT_EPOCH":3643,"BSTAR":0.000029999,"MEAN_MOTION_DOT":-0.0000011,"MEAN_MOTION_DDOT":0},{"OBJECT_NAME":"HULIANWANG DIGUI-91","OBJECT_ID":"2025-231E","EPOCH":"2026-07-12T22:14:22.392384","CLASSIFICATION_TYPE":"U","MEAN_MOTION":13.29326861,"ECCENTRICITY":0.00005581,"INCLINATION":50.0015,"RA_OF_ASC_NODE":83.3277,"ARG_OF_PERICENTER":327.5832,"MEAN_ANOMALY":32.5005,"EPHEMERIS_TYPE":0,"NORAD_CAT_ID":65999,"ELEMENT_SET_NO":999,"REV_AT_EPOCH":3631,"BSTAR":0.000006967255,"MEAN_MOTION_DOT":-0.00000121,"MEAN_MOTION_DDOT":0}]}
