HULIANWANG DIGUI-76     
1 65308U 25187D   26194.85130257 -.00000117  00000+0  15795-4 0  9998
2 65308  50.0008 110.3648 0000094 337.4272  22.6596 13.29323713 43248
HULIANWANG DIGUI-77     
1 65309U 25187E   26194.84284509 -.00000117  00000+0  15893-4 0  9997
2 65309  50.0043 110.4083 0000135 208.3171 151.7694 13.29323595 43243
HULIANWANG DIGUI-78     
1 65310U 25187F   26194.87636939 -.00000108  00000+0  34435-4 0  9993
2 65310  50.0109 110.0911 0000147 307.4188  52.6671 13.29322748 43250
HULIANWANG DIGUI-79     
1 65311U 25187G   26194.85957993 -.00000119  00000+0  11489-4 0  9994
2 65311  50.0038 110.4826 0000195 304.4759  55.6095 13.29319508 43247
HULIANWANG DIGUI-80     
1 65312U 25187H   26194.83450866 -.00000113  00000+0  24373-4 0  9990
2 65312  50.0029 110.3291 0000131 213.1266 146.9598 13.29322715 43248
HULIANWANG DIGUI-81     
1 65313U 25187J   26194.81787459 -.00000113  00000+0  23256-4 0  9999
2 65313  50.0068 110.3451 0000152 300.1016  59.9841 13.29319545 43255
HULIANWANG DIGUI-82     
1 65817U 25220A   26194.60620336  .00000035  00000+0  46398-4 0  9997
2 65817  86.4952  34.9357 0002096 100.8414 259.2956 13.24409573 38411
HULIANWANG DIGUI-83     
1 65818U 25220B   26194.59871484  .00000048  00000+0  77146-4 0  9997
2 65818  86.4974  34.9969 0002132 100.1518 259.9856 13.24409877 38417
HULIANWANG DIGUI-84     
1 65819U 25220C   26194.51557432  .00000055  00000+0  95031-4 0  9995
2 65819  86.4911  34.8374 0002073 100.4095 259.7273 13.24409678 38404
HULIANWANG DIGUI-85     
1 65820U 25220D   26194.81020855  .00000057  00000+0  97510-4 0  9990
2 65820  86.4972  34.9084 0002050 102.0246 258.1117 13.24408570 38447
HULIANWANG DIGUI-86     
1 65821U 25220E   26194.65170362  .00000052  00000+0  87988-4 0  9995
2 65821  86.4951  34.8940 0002066  84.4601 275.6768 13.24411386 38423
HULIANWANG DIGUI-87     
1 65995U 25231A   26194.85381639 -.00000108  00000+0  33699-4 0  9995
2 65995  50.0002  80.1919 0000531 344.2093  15.8762 13.29328082 36438
HULIANWANG DIGUI-88     
1 65996U 25231B   26194.86218765 -.00000101  00000+0  48561-4 0  9993
2 65996  49.9987  80.2086 0000518 329.8967  30.1875 13.29323756 36436
HULIANWANG DIGUI-89     
1 65997U 25231C   26194.84544413 -.00000111  00000+0  28463-4 0  9994
2 65997  49.9966  80.0745 0000585 335.9326  24.1519 13.29327907 36435
HULIANWANG DIGUI-90     
1 65998U 25231D   26194.83715781 -.00000110  00000+0  29999-4 0  9996
2 65998  49.9998  80.0934 0000568 332.4084  27.6758 13.29326307 36431
HULIANWANG DIGUI-91     
1 65999U 25231E   26193.92664806 -.00000121  00000+0  69673-5 0  9993
2 65999  50.0015  83.3277 0000558 327.5832  32.5005 13.29326861 36318
